,Facility Name,Address,City,State,Hospital Ownership,Lat,Lng
23,FAYETTE MEDICAL CENTER,1653 TEMPLE AVENUE NORTH,FAYETTE,AL,Voluntary non-profit - Other,33.7080266,-87.8242179
39,SOUTH BALDWIN REGIONAL MEDICAL CENTER,1613 NORTH MCKENZIE STREET,FOLEY,AL,Proprietary,30.4260938,-87.6843079
55,PRATTVILLE BAPTIST HOSPITAL,124 S MEMORIAL DR,PRATTVILLE,AL,Government - Hospital District or Authority,32.463778,-86.451938
63,LAKELAND COMMUNITY HOSPITAL,42024 HIGHWAY 195 E,HALEYVILLE,AL,Voluntary non-profit - Church,34.2479711,-87.5784146
73,BAPTIST MEDICAL CENTER EAST,400 TAYLOR ROAD,MONTGOMERY,AL,Government - Hospital District or Authority,32.3760239,-86.1748584
78,JACK HUGHSTON MEMORIAL HOSPITAL,4401 RIVER CHASE DRIVE,PHENIX CITY,AL,Government - State,32.5074824,-85.010098
133,FLAGSTAFF MEDICAL CENTER,1200 NORTH BEAVER STREET,FLAGSTAFF,AZ,Voluntary non-profit - Private,35.2088814,-111.6441794
141,BANNER BOSWELL MEDICAL CENTER,10401 WEST THUNDERBIRD BOULEVARD,SUN CITY,AZ,Voluntary non-profit - Other,33.6036764,-112.2842245
162,MAYO CLINIC HOSPITAL,5777 EAST MAYO BOULEVARD,PHOENIX,AZ,Voluntary non-profit - Private,33.6590516,-111.9564498
221,MERCY HOSPITAL NORTHWEST ARKANSAS,2710 SOUTH RIFE MEDICAL LANE,ROGERS,AR,Voluntary non-profit - Church,36.3099923,-94.1840167
245,BAPTIST HEALTH MEDICAL CENTER-STUTTGART,1703 NORTH BUERKLE ST,STUTTGART,AR,Voluntary non-profit - Private,34.5178455,-91.5582488
256,"ARKANSAS HEART HOSPITAL, LLC",1701 S SHACKLEFORD ROAD,LITTLE ROCK,AR,Proprietary,34.7390675,-92.39330609999999
269,CROSSRIDGE COMMUNITY HOSPITAL,310 SOUTH FALLS BOULEVARD,WYNNE,AR,Voluntary non-profit - Private,35.2196635,-90.78626779999999
305,MILLS-PENINSULA MEDICAL CENTER,1501 TROUSDALE DRIVE,BURLINGAME,CA,Voluntary non-profit - Private,37.5923598,-122.3824811
322,ALTA BATES SUMMIT MEDICAL CENTER,350 HAWTHORNE AVENUE,OAKLAND,CA,Voluntary non-profit - Private,37.821677,-122.2630846
350,SHARP MEMORIAL HOSPITAL,7901 FROST ST,SAN DIEGO,CA,Voluntary non-profit - Private,32.7989111,-117.1548065
358,SANTA MONICA - UCLA MED CTR & ORTHOPAEDIC HOSPITAL,1250 16TH STREET,SANTA MONICA,CA,Voluntary non-profit - Private,34.0270998,-118.4863064
380,COMMUNITY HOSPITAL OF THE MONTEREY PENINSULA,23625 W R HOLMAN HIGHWAY,MONTEREY,CA,Voluntary non-profit - Private,36.5785609,-121.9134061
389,ST JUDE MEDICAL CENTER,101 E VALENCIA MESA DRIVE,FULLERTON,CA,Voluntary non-profit - Church,33.8943451,-117.9272201
393,JOHN MUIR MEDICAL CENTER - WALNUT CREEK CAMPUS,1601 YGNACIO VALLEY RD,WALNUT CREEK,CA,Voluntary non-profit - Other,37.9128769,-122.0409498
399,SEQUOIA HOSPITAL,170 ALAMEDA DE LAS PULGAS,REDWOOD CITY,CA,Voluntary non-profit - Private,37.479843,-122.2546654
404,SHARP CHULA VISTA MEDICAL CENTER,751 MEDICAL CENTER COURT,CHULA VISTA,CA,Proprietary,32.6187297,-117.0221467
413,SHARP CORONADO HOSPITAL AND HLTHCR CTR,250 PROSPECT PLACE,CORONADO,CA,Proprietary,32.694447,-117.1686765
417,GLENDALE ADVENTIST MEDICAL CENTER,1509 E WILSON TERRACE,GLENDALE,CA,Voluntary non-profit - Private,34.1502139,-118.2304591
432,STANFORD HEALTH CARE - VALLEYCARE,5555 WEST LAS POSITAS BOULEVARD,PLEASANTON,CA,Voluntary non-profit - Private,37.6933946,-121.8803417
435,SUTTER SANTA ROSA REGIONAL HOSPITAL,30 MARK WEST SPRINGS ROAD,SANTA ROSA,CA,Voluntary non-profit - Other,38.4950726,-122.7519949
442,ALTA BATES SUMMIT MEDICAL CENTER - ALTA BATES CAMP,2450 ASHBY AVENUE,BERKELEY,CA,Voluntary non-profit - Private,37.8556279,-122.2575014
443,EL CAMINO HOSPITAL,2500 GRANT ROAD,MOUNTAIN VIEW,CA,Government - Hospital District or Authority,37.3691517,-122.0795279
444,SUTTER ROSEVILLE MEDICAL CENTER,ONE MEDICAL PLAZA,ROSEVILLE,CA,Voluntary non-profit - Private,26.2757994,-80.1217305
445,SUTTER TRACY COMMUNITY HOSPITAL,1420 NORTH TRACY BLVD,TRACY,CA,Voluntary non-profit - Private,37.7440116,-121.4343074
448,SCRIPPS MEMORIAL HOSPITAL LA JOLLA,9888 GENESEE AVENUE,LA JOLLA,CA,Physician,32.8851544,-117.2255383
458,BARTON MEMORIAL HOSPITAL,2170 SOUTH AVENUE,SOUTH LAKE TAHOE,CA,Voluntary non-profit - Private,38.9122482,-119.9965847
460,GOLETA VALLEY COTTAGE HOSPITAL,351 S PATTERSON AVE,SANTA BARBARA,CA,Voluntary non-profit - Other,34.4334194,-119.8104104
471,SANTA BARBARA COTTAGE HOSPITAL,400 WEST PUEBLO,SANTA BARBARA,CA,Voluntary non-profit - Private,34.4295357,-119.7241169
480,SCRIPPS GREEN HOSPITAL,10666 NORTH TORREY PINES ROAD,LA JOLLA,CA,Voluntary non-profit - Other,32.8970357,-117.2427735
484,STANFORD HEALTH CARE,300 PASTEUR DRIVE,STANFORD,CA,Voluntary non-profit - Private,37.4330746,-122.1750485
496,JOHN MUIR MEDICAL CENTER - CONCORD CAMPUS,2540 EAST ST,CONCORD,CA,Voluntary non-profit - Private,37.9838036,-122.0338474
497,SUTTER AUBURN FAITH HOSPITAL,11815 EDUCATION STREET,AUBURN,CA,Voluntary non-profit - Private,38.9452952,-121.1006825
510,SUTTER DAVIS HOSPITAL,2000 SUTTER PLACE,DAVIS,CA,Voluntary non-profit - Private,38.5620188,-121.7713549
538,CEDARS-SINAI MEDICAL CENTER,8700 BEVERLY BLVD,LOS ANGELES,CA,Voluntary non-profit - Other,34.075232,-118.3801756
579,ALVARADO HOSPITAL MEDICAL CENTER,6655 ALVARADO ROAD,SAN DIEGO,CA,Proprietary,32.7766415,-117.0573188
582,PROVIDENCE TARZANA MEDICAL CENTER,18321 CLARK STREET,TARZANA,CA,Voluntary non-profit - Private,34.1710084,-118.5320475
583,L A DOWNTOWN MEDICAL CENTER,1711 WEST TEMPLE STREET,LOS ANGELES,CA,Proprietary,34.0695317,-118.2634888
593,TEMECULA VALLEY HOSPITAL,31700 TEMECULA PKWY,TEMECULA,CA,Proprietary,33.4811362,-117.1060989
600,CASA COLINA HOSPITAL,255 E BONITA AVE,POMONA,CA,Voluntary non-profit - Private,34.0975963,-117.7469367
613,ADVENTIST HEALTH HOWARD MEMORIAL,1 MARCELA DR,WILLITS,CA,Voluntary non-profit - Church,39.3905644,-76.60363199999999
689,MONTROSE MEMORIAL HOSPITAL,800 S 3RD ST,MONTROSE,CO,Voluntary non-profit - Private,46.7976715,-100.7889827
692,POUDRE VALLEY HOSPITAL,1024 S LEMAY AVE,FORT COLLINS,CO,Voluntary non-profit - Private,40.5716484,-105.0566547
695,MERCY REGIONAL MEDICAL CENTER,1010 THREE SPRINGS BLVD,DURANGO,CO,Voluntary non-profit - Church,37.2361018,-107.8255618
705,CENTURA HEALTH-PENROSE-ST FRANCIS HEALTH SERVICES,2222 NORTH NEVADA AVE,COLORADO SPRINGS,CO,Voluntary non-profit - Private,38.8655367,-104.821745
706,ROSE MEDICAL CENTER,4567 E 9TH AVE,DENVER,CO,Proprietary,39.732185,-104.9340497
711,COMMUNITY HOSPITAL,2351 'G' ROAD,GRAND JUNCTION,CO,Voluntary non-profit - Private,39.1051972,-108.6152656
718,"MEDICAL CENTER OF AURORA, THE",1501 S POTOMAC ST,AURORA,CO,Proprietary,39.6901471,-104.8319627
722,SKY RIDGE MEDICAL CENTER,10101 RIDGEGATE PARKWAY,LONE TREE,CO,Voluntary non-profit - Other,39.529099,-104.871212
724,PARKER ADVENTIST HOSPITAL,9395 CROWN CREST BLVD,PARKER,CO,Voluntary non-profit - Private,39.5486133,-104.7710383
728,MEDICAL CENTER OF THE ROCKIES,2500 ROCKY MOUNTAIN AVENUE,LOVELAND,CO,Voluntary non-profit - Private,40.4156022,-104.9971202
736,RIO GRANDE HOSPITAL,310 COUNTY RD 14,DEL NORTE,CO,Voluntary non-profit - Private,37.674237,-106.3642497
756,MT SAN RAFAEL HOSPITAL,410 BENEDICTA AVE,TRINIDAD,CO,Voluntary non-profit - Private,37.173196,-104.4875252
779,SHARON HOSPITAL,50 HOSPITAL HILL ROAD,SHARON,CT,Proprietary,41.878884,-73.48042389999999
829,SIBLEY MEMORIAL HOSPITAL,5255 LOUGHBORO RD NW,WASHINGTON,DC,Voluntary non-profit - Other,38.9365476,-77.10919659999999
887,SARASOTA MEMORIAL HOSPITAL,1700 S TAMIAMI TRL,SARASOTA,FL,Government - Hospital District or Authority,27.3185566,-82.531735
900,BAPTIST MEDICAL CENTER - BEACHES,1350 13TH AVE S,JACKSONVILLE BEACH,FL,Voluntary non-profit - Private,30.2735349,-81.39816309999999
916,BAPTIST MEDICAL CENTER - NASSAU,1250 S 18TH ST,FERNANDINA BEACH,FL,Voluntary non-profit - Private,30.6531443,-81.4485844
919,MAYO CLINIC,4500 SAN PABLO RD,JACKSONVILLE,FL,Voluntary non-profit - Private,30.2627916,-81.4414608
930,CAPE CANAVERAL HOSPITAL,701 W COCOA BEACH CAUSEWAY,COCOA BEACH,FL,Voluntary non-profit - Private,28.3600539,-80.6230934
972,GULF BREEZE HOSPITAL,1110 GULF BREEZE PKWY,GULF BREEZE,FL,Voluntary non-profit - Other,30.3610677,-87.15702259999999
994,ASCENSION SACRED HEART GULF,3801 E HWY 98,PORT SAINT JOE,FL,Voluntary non-profit - Private,30.1441703,-85.6156436
996,VIERA HOSPITAL,8745 N WICKHAM RD,MELBOURNE,FL,Voluntary non-profit - Private,28.228301,-80.72936729999999
998,ADVENTHEALTH WESLEY CHAPEL,2600 BRUCE B DOWNS BLVD,WESLEY CHAPEL,FL,Voluntary non-profit - Private,28.1953573,-82.35182139999999
1003,ADVENTHEALTH WAUCHULA,735 S 5TH AVE,WAUCHULA,FL,Voluntary non-profit - Private,27.5394213,-81.80727739999999
1014,MARINERS HOSPITAL,91500 OVERSEAS HIGHWAY,TAVERNIER,FL,Voluntary non-profit - Private,25.0059575,-80.5220346
1049,NORTHSIDE HOSPITAL FORSYTH,1200 NORTHSIDE FORSYTH DRIVE,CUMMING,GA,Voluntary non-profit - Private,34.1787035,-84.1390887
1080,UNION GENERAL HOSPITAL,35 HOSPITAL ROAD,BLAIRSVILLE,GA,Government - Hospital District or Authority,34.8858798,-83.9623541
1104,EMANUEL MEDICAL CENTER,117 KITE ROAD,SWAINSBORO,GA,Government - Hospital District or Authority,32.592759,-82.3471716
1203,STRAUB CLINIC AND HOSPITAL,888 SO KING STREET,HONOLULU,HI,Proprietary,21.3025814,-157.8501322
1204,PALI MOMI MEDICAL CENTER,98-1079 MOANALUA ROAD,AIEA,HI,Proprietary,21.3835987,-157.9382973
1218,ST LUKE'S MAGIC VALLEY RMC,801 POLE LINE ROAD WEST,TWIN FALLS,ID,Voluntary non-profit - Private,42.590512,-114.4960989
1220,ST LUKE'S REGIONAL MEDICAL CENTER,190 EAST BANNOCK STREET,BOISE,ID,Voluntary non-profit - Private,43.6127523,-116.1923716
1226,PORTNEUF MEDICAL CENTER,777 HOSPITAL WAY,POCATELLO,ID,Proprietary,42.8739657,-112.4211813
1229,MOUNTAIN VIEW HOSPITAL,2325 CORONADO STREET,IDAHO FALLS,ID,Physician,43.4743705,-111.987557
1234,NORTH CANYON MEDICAL CENTER,267 NORTH CANYON DR,GOODING,ID,Voluntary non-profit - Private,42.92348620000001,-114.7109877
1254,ST LUKE'S WOOD RIVER MEDICAL CENTER,100 HOSPITAL DRIVE,KETCHUM,ID,Voluntary non-profit - Private,38.131468,-122.2405061
1275,SHERMAN HOSPITAL,1425 NORTH RANDALL ROAD,ELGIN,IL,Voluntary non-profit - Private,42.0713523,-88.3308103
1278,SSM HEALTH ST MARY'S HOSPITAL -CENTRALIA,400 NORTH PLEASANT AVENUE,CENTRALIA,IL,Voluntary non-profit - Church,38.5300938,-89.11727549999999
1288,JERSEY COMMUNITY HOSPITAL,400 MAPLE SUMMIT ROAD,JERSEYVILLE,IL,Government - Local,39.110403,-90.34311799999999
1290,RUSH OAK PARK HOSPITAL,520 S MAPLE AVE,OAK PARK,IL,Voluntary non-profit - Church,41.878649,-87.80316979999999
1292,ADVENTIST LA GRANGE MEMORIAL HOSPITAL,5101 S WILLOW SPRINGS RD,LA GRANGE,IL,Voluntary non-profit - Church,41.7967451,-87.8863882
1305,MIDWESTERN REGION MED CENTER,2520 ELISHA AVENUE,ZION,IL,Proprietary,42.4488878,-87.8275365
1312,NORTHWESTERN MEDICINE MCHENRY HOSPITAL,4201 MEDICAL CENTER DRIVE,MCHENRY,IL,Voluntary non-profit - Other,33.16115660000001,-96.63418569999999
1313,PRESENCE RESURRECTION MEDICAL CENTER,7435 W TALCOTT AVENUE,CHICAGO,IL,Voluntary non-profit - Church,41.9876791,-87.8142891
1315,RUSH UNIVERSITY MEDICAL CENTER,1653 WEST CONGRESS PARKWAY,CHICAGO,IL,Voluntary non-profit - Private,41.8747095,-87.668452
1326,ST JOSEPHS HOSPITAL,9515 HOLY CROSS LN,BREESE,IL,Voluntary non-profit - Church,38.626291,-89.5239582
1342,PRESENCE SAINTS MARY AND ELIZABETH MEDICAL CENTER,2233 W DIVISION ST,CHICAGO,IL,Voluntary non-profit - Church,41.9020876,-87.6829261
1352,ELMHURST MEMORIAL HOSPITAL,155 EAST BRUSH HILL ROAD,ELMHURST,IL,Proprietary,41.8640197,-87.9358675
1358,DELNOR COMMUNITY HOSPITAL,300 RANDALL RD,GENEVA,IL,Voluntary non-profit - Private,41.8862845,-88.3435451
1361,ADVOCATE LUTHERAN GENERAL HOSPITAL,1775 DEMPSTER ST,PARK RIDGE,IL,Voluntary non-profit - Church,42.0384783,-87.847611
1364,EDWARD HOSPITAL,801 SOUTH WASHINGTON,NAPERVILLE,IL,Voluntary non-profit - Private,41.7606589,-88.1534222
1366,ILLINOIS VALLEY COMMUNITY HOSPITAL,925 WEST ST,PERU,IL,Voluntary non-profit - Private,41.328884,-89.12392109999999
1373,ALEXIAN BROTHERS MEDICAL CENTER 1,800 W BIESTERFIELD RD,ELK GROVE VILLAGE,IL,Voluntary non-profit - Church,42.0050035,-88.01599739999999
1398,OSF SAINT PAUL MEDICAL CENTER,1401 E 12TH STREET,MENDOTA,IL,Voluntary non-profit - Private,30.272715,-97.72482800000002
1414,WABASH GENERAL HOSPITAL 1,1418 COLLEGE DRIVE,MOUNT CARMEL,IL,Government - Hospital District or Authority,30.4357325,-91.1335618
1423,ST JOSEPH'S HOSPITAL,12866 TROXLER AVENUE,HIGHLAND,IL,Voluntary non-profit - Church,38.75463390000001,-89.6675851
1427,VALLEY WEST COMMUNITY HOSPITAL,1301 NORTH MAIN STREET,SANDWICH,IL,Voluntary non-profit - Private,34.0646271,-118.2320353
1463,ST CATHERINE HOSPITAL INC,4321 FIR ST,EAST CHICAGO,IN,Voluntary non-profit - Private,41.6348372,-87.4475437
1474,ESKENAZI HEALTH,720 ESKENAZI AVENUE,INDIANAPOLIS,IN,Government - Local,39.7779943,-86.18398189999999
1488,FRANCISCAN HEALTH MOORESVILLE,1201 HADLEY RD,MOORESVILLE,IN,Voluntary non-profit - Church,39.6076612,-86.3556555
1493,SCHNECK MEDICAL CENTER,411 W TIPTON ST,SEYMOUR,IN,Government - Local,38.9522474,-85.90174549999999
1494,KING'S DAUGHTERS' HEALTH,1373 EAST SR 62,MADISON,IN,Voluntary non-profit - Private,38.792688,-85.36384330000001
1514,MEMORIAL HOSPITAL AND HEALTH CARE CENTER,800 W 9TH ST,JASPER,IN,Voluntary non-profit - Church,38.39499199999999,-86.940895
1520,WOMEN'S HOSPITAL THE,4199 GATEWAY BLVD,NEWBURGH,IN,Proprietary,37.9738741,-87.447491
1522,ST VINCENT HEART CENTER OF INDIANA LLC,10580 N MERIDIAN ST,INDIANAPOLIS,IN,Proprietary,39.9393236,-86.1591945
1523,ST VINCENT CARMEL HOSPITAL INC,13500 N MERIDIAN ST,CARMEL,IN,Voluntary non-profit - Church,39.9821468,-86.1442253
1524,IU HEALTH WEST HOSPITAL,1111 N RONALD REAGAN PKWY,AVON,IN,Proprietary,39.779959,-86.3401688
1526,INDIANA UNIVERSITY HEALTH NORTH HOSPITAL,11700 N MERIDIAN ST,CARMEL,IN,Voluntary non-profit - Private,39.9596046,-86.15940789999999
1610,CHI HEALTH MERCY COUNCIL BLUFFS,800 MERCY DRIVE,COUNCIL BLUFFS,IA,Voluntary non-profit - Private,41.2687021,-95.8393612
1611,MERCY HOSPITAL,500 E MARKET STREET,IOWA CITY,IA,Voluntary non-profit - Church,41.6641482,-91.5285792
1612,MARY GREELEY MEDICAL CENTER,1111 DUFF AVENUE,AMES,IA,Voluntary non-profit - Private,42.0328049,-93.6118077
1613,SKIFF MEDICAL CENTER,204 N 4TH AVE E,NEWTON,IA,Voluntary non-profit - Private,41.7034206,-93.0509917
1622,MERCYONE DUBUQUE MEDICAL CENTER,250 MERCY DRIVE,DUBUQUE,IA,Voluntary non-profit - Church,42.492721,-90.6750809
1623,MERCY MEDICAL CENTER - CEDAR RAPIDS,701 10TH STREET SE,CEDAR RAPIDS,IA,Voluntary non-profit - Church,41.9780945,-91.6557271
1624,MERCYONE CLINTON MEDICAL CENTER,1410 NORTH 4TH STREET,CLINTON,IA,Voluntary non-profit - Private,40.2714916,-76.8885688
1634,LAKES REGIONAL HEALTHCARE,2301 HIGHWAY 71,SPIRIT LAKE,IA,Voluntary non-profit - Other,30.1435263,-85.2103293
1639,IOWA SPECIALTY HOSPITAL - BELMOND,403 FIRST STREET SE,BELMOND,IA,Government - Local,38.8847675,-77.0061217
1644,JONES REGIONAL MEDICAL CENTER,1795 HIGHWAY 64 EAST,ANAMOSA,IA,Voluntary non-profit - Private,35.1101486,-92.085769
1706,FLOYD VALLEY HEALTHCARE,714 LINCOLN ST NE,LE MARS,IA,Proprietary,42.796123,-96.1555839
1726,ADVENTHEALTH OTTAWA,1301 S MAIN STREET,OTTAWA,KS,Government - Local,34.036414,-118.2608393
1740,NEWTON MEDICAL CENTER,600 MEDICAL CENTER DRIVE,NEWTON,KS,Voluntary non-profit - Private,39.7388246,-75.0629855
1741,ADVENTHEALTH SHAWNEE MISSION,9100 W 74TH STREET,SHAWNEE MISSION,KS,Voluntary non-profit - Church,38.9957761,-94.69211390000001
1745,LABETTE HEALTH,1902 SOUTH US HWY 59,PARSONS,KS,Government - Local,41.9991793,-95.3673142
1747,WESLEY MEDICAL CENTER,550 N HILLSIDE STREET,WICHITA,KS,Proprietary,37.69527350000001,-97.29778309999999
1752,PROVIDENCE MEDICAL CENTER,8929 PARALLEL PARKWAY,KANSAS CITY,KS,Voluntary non-profit - Church,39.1265615,-94.7866525
1759,SAINT LUKE'S SOUTH HOSPITAL,12300 METCALF AVENUE,OVERLAND PARK,KS,Voluntary non-profit - Other,38.9037578,-94.66998819999999
1760,KANSAS HEART HOSPITAL,3601 NORTH WEBB ROAD,WICHITA,KS,Proprietary,37.7503032,-97.22782839999999
1834,"COMMUNITY MEMORIAL HEALTHCARE, INC",708 N 18TH STREET,MARYSVILLE,KS,Voluntary non-profit - Private,36.1760599,-115.1233014
1845,MITCHELL COUNTY HOSPITAL HEALTH SYSTEMS,"400 W 8TH STREET, P O BOX 399",BELOIT,KS,Government - Local,39.467598,-98.114401
1863,OWENSBORO HEALTH MUHLENBERG COMMUNITY HOSPITAL,440 HOPKINSVILLE STREET,GREENVILLE,KY,Voluntary non-profit - Private,37.1965203,-87.1894114
1896,LOGAN MEMORIAL HOSPITAL,1625 NASHVILLE STREET,RUSSELLVILLE,KY,Proprietary,36.8162686,-86.8814829
1950,SAINT JOSEPH BEREA,305 ESTILL STREET,BEREA,KY,Voluntary non-profit - Private,37.5766235,-84.28630559999999
1964,THIBODAUX REGIONAL MEDICAL CENTER,602 N ACADIA ROAD,THIBODAUX,LA,Government - Hospital District or Authority,29.7810535,-90.80559269999999
2016,MERCY REGIONAL MEDICAL CENTER,800 E MAIN,VILLE PLATTE,LA,Proprietary,36.1987064,-95.1581739
2029,PARK PLACE SURGICAL HOSPITAL,4811 AMBASSADOR CAFFERY PARKWAY,LAFAYETTE,LA,Physician,30.1494289,-92.0365801
2120,YORK HOSPITAL,15 HOSPITAL DRIVE,YORK,ME,Voluntary non-profit - Private,43.1424754,-70.65145389999999
2129,NORTHERN LIGHT MAINE COAST HOSPITAL,50 UNION STREET,ELLSWORTH,ME,Voluntary non-profit - Other,40.4995736,-74.451143
2130,NORTHERN MAINE MEDICAL CENTER,194 E MAIN STREET,FORT KENT,ME,Voluntary non-profit - Private,41.67312099999999,-73.0691702
2146,REDINGTON FAIRVIEW GENERAL HOSPITAL,46 FAIRVIEW AVE   PO BOX 468,SKOWHEGAN,ME,Proprietary,44.7593498,-69.7135128
2157,MERCY MEDICAL CENTER INC,301 SAINT PAUL PLACE,BALTIMORE,MD,Voluntary non-profit - Church,39.292837,-76.61324599999999
2164,GARRETT COUNTY MEMORIAL HOSPITAL,251 NORTH  FOURTH STREET,OAKLAND,MD,Voluntary non-profit - Private,33.7702499,-84.3781535
2166,PENINSULA REGIONAL MEDICAL CENTER,100 EAST CARROLL AVENUE,SALISBURY,MD,Voluntary non-profit - Private,34.1342141,-117.8654648
2168,ANNE ARUNDEL MEDICAL CENTER,2001 MEDICAL PARKWAY,ANNAPOLIS,MD,Voluntary non-profit - Private,38.99014690000001,-76.5341382
2169,MEDSTAR UNION MEMORIAL HOSPITAL,201 EAST UNIVERSITY PARKWAY,BALTIMORE,MD,Voluntary non-profit - Other,39.329267,-76.614289
2183,GREATER BALTIMORE MEDICAL CENTER,6701 NORTH  CHARLES STREET,BALTIMORE,MD,Voluntary non-profit - Private,39.3952133,-76.62724299999999
2190,ADVENTIST HEALTHCARE SHADY GROVE MEDICAL CENTER,9901 MEDICAL CENTER DRIVE,ROCKVILLE,MD,Voluntary non-profit - Private,39.0989007,-77.1985483
2195,UNIVERSITY OF MD ST JOSEPH MEDICAL CENTER,7601 OSLER DRIVE,TOWSON,MD,Voluntary non-profit - Private,39.3873256,-76.6111596
2212,CAPE COD HOSPITAL,88 LEWIS BAY ROAD,HYANNIS,MA,Voluntary non-profit - Private,41.6529916,-70.2746123
2228,BETH ISRAEL DEACONESS HOSPITAL - PLYMOUTH,275 SANDWICH STREET,PLYMOUTH,MA,Voluntary non-profit - Private,41.9430573,-70.64528709999999
2234,MASSACHUSETTS GENERAL HOSPITAL,55 FRUIT STREET,BOSTON,MA,Voluntary non-profit - Private,42.3631541,-71.0688333
2240,BETH ISRAEL DEACONESS HOSPITAL - NEEDHAM,148 CHESTNUT STREET,NEEDHAM,MA,Voluntary non-profit - Private,42.2770426,-71.2366552
2243,NEW ENGLAND BAPTIST HOSPITAL,125 PARKER HILL AVENUE,BOSTON,MA,Voluntary non-profit - Private,42.3296512,-71.1073952
2254,BRIGHAM AND WOMEN'S FAULKNER HOSPITAL,1153 CENTRE STREET,BOSTON,MA,Voluntary non-profit - Private,42.3016411,-71.12878169999999
2256,FALMOUTH HOSPITAL,67 & 100 TER HEUN DRIVE,FALMOUTH,MA,Voluntary non-profit - Private,38.2649133,-104.6124269
2258,"LAHEY HOSPITAL & MEDICAL CENTER, BURLINGTON",41 & 45 MALL ROAD,BURLINGTON,MA,Voluntary non-profit - Private,39.04111109999999,-94.5827778
2263,FAIRVIEW HOSPITAL,29 LEWIS AVENUE,GREAT BARRINGTON,MA,Voluntary non-profit - Private,39.8675723,-75.078362
2286,SPECTRUM HEALTH ZEELAND COMMUNITY HOSPITAL,8333 FELCH ST,ZEELAND,MI,Voluntary non-profit - Private,42.8205543,-85.98797119999999
2291,ASCENSION PROVIDENCE HOSPITAL,16001 W NINE MILE RD,SOUTHFIELD,MI,Voluntary non-profit - Church,42.4579777,-83.2052537
2298,LAKE HURON MEDICAL CENTER,2601 ELECTRIC AVENUE,PORT HURON,MI,Voluntary non-profit - Church,42.9560593,-82.4334645
2304,UNIVERSITY OF MICHIGAN HEALTH SYSTEM,"1500 E MEDICAL CENTER DRIVE, SPC 5474",ANN ARBOR,MI,Voluntary non-profit - Private,42.2849096,-83.7333623
2311,MERCY HEALTH MUSKEGON,1700 CLINTON STREET,MUSKEGON,MI,Voluntary non-profit - Private,43.2221037,-86.2428565
2312,SAINT JOSEPH MERCY LIVINGSTON HOSPITAL,620 BYRON RD,HOWELL,MI,Voluntary non-profit - Other,42.6155664,-83.94084989999999
2315,HOLLAND COMMUNITY HOSPITAL,602 MICHIGAN AVE,HOLLAND,MI,Voluntary non-profit - Private,42.7749746,-86.1143432
2320,MUNSON HEALTHCARE CADILLAC HOSPITAL,400 HOBART ST,CADILLAC,MI,Voluntary non-profit - Church,44.24588259999999,-85.3900769
2322,"BEAUMONT HOSPITAL, GROSSE POINTE",468 CADIEUX RD,GROSSE POINTE,MI,Voluntary non-profit - Private,42.3844125,-82.91468929999999
2325,MIDMICHIGAN MEDICAL CENTER - WEST BRANCH,2463 SOUTH M-30,WEST BRANCH,MI,Government - Local,43.9169171,-84.3632567
2327,MUNSON MEDICAL CENTER,1105 SIXTH STREET,TRAVERSE CITY,MI,Voluntary non-profit - Other,44.7608551,-85.6426977
2331,MCLAREN NORTHERN MICHIGAN,416 CONNABLE AVE,PETOSKEY,MI,Voluntary non-profit - Other,45.3732041,-84.9700443
2332,UP HEALTH SYSTEM PORTAGE,500 CAMPUS DRIVE,HANCOCK,MI,Voluntary non-profit - Other,47.1409861,-88.5862827
2335,MCLAREN THUMB REGION,1100 SOUTH VAN DYKE ROAD,BAD AXE,MI,Voluntary non-profit - Private,43.8031628,-83.0319928
2357,OAKLAWN HOSPITAL,200 N MADISON,MARSHALL,MI,Voluntary non-profit - Other,42.2735551,-84.95705749999999
2366,ST JOSEPH MERCY CHELSEA,775 S MAIN ST,CHELSEA,MI,Voluntary non-profit - Private,42.3100294,-84.0169076
2368,"BEAUMONT HOSPITAL, TROY",44201 DEQUINDRE ROAD,TROY,MI,Voluntary non-profit - Private,42.6182284,-83.0926592
2382,ASCENSION STANDISH HOSPITAL,805 W CEDAR ST,STANDISH,MI,Voluntary non-profit - Church,43.981945,-83.96880399999999
2387,SCHEURER HOSPITAL,170 N CASEVILLE RD,PIGEON,MI,Voluntary non-profit - Other,43.83433640000001,-83.27811109999999
2395,"ASPIRUS IRON RIVER HOSPITAL & CLINICS, INC",1400 W ICE LAKE ROAD,IRON RIVER,MI,Voluntary non-profit - Other,46.0997441,-88.6192244
2432,OLMSTED MEDICAL CENTER,1650 FOURTH STREET SOUTHEAST,ROCHESTER,MN,Voluntary non-profit - Private,44.0199261,-92.4405228
2433,MAYO CLINIC HOSPITAL ROCHESTER,1216 SECOND STREET SOUTHWEST,ROCHESTER,MN,Voluntary non-profit - Church,44.0211624,-92.4820759
2440,ST CLOUD HOSPITAL,1406 6TH AVE NORTH,SAINT CLOUD,MN,Voluntary non-profit - Private,45.5753593,-94.16920480000002
2442,UNIVERSITY MEDICAL CENTER-MESABI/ MESABA CLINICS,750 EAST 34TH ST,HIBBING,MN,Voluntary non-profit - Other,47.4094872,-92.9293991
2454,LAKEVIEW MEMORIAL HOSPITAL,927 WEST CHURCHILL STREET,STILLWATER,MN,Voluntary non-profit - Private,45.04752879999999,-92.8175569
2458,BUFFALO HOSPITAL,303 CATLIN ST,BUFFALO,MN,Voluntary non-profit - Other,45.1932288,-93.8713418
2459,FAIRVIEW SOUTHDALE HOSPITAL,6401 FRANCE AVENUE SOUTH,EDINA,MN,Voluntary non-profit - Private,44.8859838,-93.3269645
2469,FAIRVIEW NORTHLAND REGIONAL HOSPITAL,911 NORTHLAND DR,PRINCETON,MN,Voluntary non-profit - Other,45.558484,-93.5900941
2477,MAPLE GROVE HOSPITAL,9875 HOSPITAL DRIVE,MAPLE GROVE,MN,Voluntary non-profit - Private,45.132742,-93.4811604
2483,RIVERWOOD HEALTHCARE CENTER,200 BUNKER HILL DRIVE,AITKIN,MN,Voluntary non-profit - Private,46.5296349,-93.6984153
2547,PERHAM HEALTH,1000 CONEY STREET WEST,PERHAM,MN,Government - Hospital District or Authority,46.5939093,-95.5931883
2568,TISHOMINGO HEALTH SERVICES INC,1777 CURTIS DRIVE,IUKA,MS,Voluntary non-profit - Private,38.844273,-76.9565458
2570,BAPTIST MEMORIAL HOSPITAL UNION COUNTY,200 HWY 30 WEST,NEW ALBANY,MS,Voluntary non-profit - Other,34.49699,-89.0279582
2577,WEBSTER GENERAL HOSPITAL/ SWING BED,70 MEDICAL PLAZA,EUPORA,MS,Voluntary non-profit - Other,42.3123809,-122.8608662
2676,MERCY HOSPITAL ST LOUIS,615 NEW BALLAS ROAD,SAINT LOUIS,MO,Voluntary non-profit - Private,38.6439938,-90.4465938
2696,BOONE HOSPITAL CENTER,1600 E BROADWAY,COLUMBIA,MO,Voluntary non-profit - Other,34.1458057,-118.229294
2702,ST JOSEPH MEDICAL CENTER,1000 CARONDELET DR,KANSAS CITY,MO,Proprietary,38.9367113,-94.604475
2725,ST LUKES HOSPITAL,232 S WOODS MILL RD,CHESTERFIELD,MO,Voluntary non-profit - Private,38.6522289,-90.5028713
2795,ST PATRICK HOSPITAL,500 W BROADWAY,MISSOULA,MT,Voluntary non-profit - Church,32.715908,-117.167844
2799,ST VINCENT HEALTHCARE,1233 N 30TH ST,BILLINGS,MT,Voluntary non-profit - Church,45.79348419999999,-108.5187094
2800,KALISPELL REGIONAL MEDICAL CENTER,310 SUNNYVIEW LANE,KALISPELL,MT,Voluntary non-profit - Private,48.2147675,-114.3236774
2868,CHI HEALTH MIDLANDS,11111 SOUTH 84TH ST,PAPILLION,NE,Voluntary non-profit - Church,41.135853,-96.040111
2872,CHI HEALTH NEBRASKA HEART,7500 SOUTH 91ST ST,LINCOLN,NE,Voluntary non-profit - Private,40.7364937,-96.59324389999999
2894,BRODSTONE MEMORIAL HOSP,"P O BOX 187, 520 EAST 10TH ST",SUPERIOR,NE,Voluntary non-profit - Private,40.02671429999999,-98.0662114
2912,BOONE COUNTY HEALTH CENTER,"P O BOX 151, 723 WEST FAIRVIEW ST",ALBION,NE,Government - Local,41.6835132,-98.0054172
2939,PHELPS MEMORIAL HEALTH CENTER,1215 TIBBALS ST,HOLDREGE,NE,Voluntary non-profit - Private,40.4477449,-99.3832659
2952,SAINT MARY'S REGIONAL MEDICAL CENTER,235 W 6TH ST,RENO,NV,Voluntary non-profit - Private,39.5324265,-119.820038
2999,WENTWORTH-DOUGLASS HOSPITAL,789 CENTRAL AVE,DOVER,NH,Voluntary non-profit - Private,43.2132323,-70.8742397
3002,EXETER HOSPITAL INC,5 ALUMNI DRIVE,EXETER,NH,Voluntary non-profit - Private,42.9833965,-70.9352553
3017,HUGGINS HOSPITAL,240 SOUTH MAIN STREET,WOLFEBORO,NH,Voluntary non-profit - Private,43.5820564,-71.20067039999999
3031,MORRISTOWN MEDICAL CENTER,100 MADISON AVE,MORRISTOWN,NJ,Voluntary non-profit - Private,40.7896261,-74.4655683
3053,SAINT CLARE'S HOSPITAL/ DENVILLE CAMPUS,25 POCONO ROAD,DENVILLE,NJ,Proprietary,40.894894,-74.4654098
3101,CHRISTUS ST VINCENT REGIONAL MEDICAL CENTER,455 ST MICHAEL'S DRIVE,SANTA FE,NM,Voluntary non-profit - Private,35.6595345,-105.9457829
3136,NOR-LEA HOSPITAL DISTRICT,1600 NORTH MAIN AVE,LOVINGTON,NM,Government - Hospital District or Authority,41.4339082,-75.6610609
3137,LINCOLN COUNTY MEDICAL CENTER,211 SUDDERTH DRIVE,RUIDOSO,NM,Voluntary non-profit - Private,33.3222948,-105.6311899
3220,"ST FRANCIS HOSPITAL, ROSLYN",100 PORT WASHINGTON BOULEVARD,ROSLYN,NY,Voluntary non-profit - Church,40.804269,-73.6704524
3239,NYU LANGONE HOSPITALS,550 FIRST AVENUE,NEW YORK,NY,Voluntary non-profit - Private,40.7421225,-73.9739642
3268,HOSPITAL FOR SPECIAL SURGERY,535 EAST 70TH STREET,NEW YORK,NY,Voluntary non-profit - Private,40.7649072,-73.95237639999999
3341,MEMORIAL MISSION HOSPITAL AND ASHEVILLE SURGERY CE,509 BILTMORE AVE,ASHEVILLE,NC,Voluntary non-profit - Private,35.576583,-82.54922200000001
3342,NORTHERN HOSPITAL OF SURRY COUNTY,830 ROCKFORD ST,MOUNT AIRY,NC,Government - Hospital District or Authority,36.488967,-80.61189100000001
3353,PARK RIDGE HEALTH,100 HOSPITAL DRIVE,HENDERSONVILLE,NC,Voluntary non-profit - Private,38.131468,-122.2405061
3359,ATRIUM HEALTH KINGS MOUNTAIN,706 W KING ST,KINGS MOUNTAIN,NC,Government - Hospital District or Authority,35.2414858,-81.3566989
3367,WATAUGA MEDICAL CENTER,336 DEERFIELD ROAD,BOONE,NC,Government - Local,36.1983001,-81.65128120000001
3376,DUKE HEALTH RALEIGH HOSPITAL,3400 WAKE FOREST RD,RALEIGH,NC,Voluntary non-profit - Private,35.8286765,-78.617966
3382,THE MOSES H CONE MEMORIAL HOSPITAL,1200 N ELM ST,GREENSBORO,NC,Voluntary non-profit - Private,36.0910599,-79.78725179999999
3390,REX HOSPITAL,4420 LAKE BOONE TRAIL,RALEIGH,NC,Government - State,35.8174047,-78.7029017
3408,ATRIUM HEALTH LINCOLN,433 MCALISTER RD,LINCOLNTON,NC,Government - Hospital District or Authority,35.4897762,-81.2029807
3413,DUKE REGIONAL HOSPITAL,3643 N ROXBORO STREET,DURHAM,NC,Government - Local,36.0361504,-78.9009894
3419,NOVANT HEALTH MATTHEWS MEDICAL CENTER,1500 MATTHEWS TWNSHP PRKWY BOX 3310,MATTHEWS,NC,Voluntary non-profit - Other,35.1168131,-80.72368039999999
3424,DAVIE MEDICAL CENTER,223 HOSPITAL STREET,MOCKSVILLE,NC,Voluntary non-profit - Private,37.553039,-77.43180679999999
3429,VIDANT BERTIE  HOSPITAL,1403 SOUTH KINGS STREET,WINDSOR,NC,Voluntary non-profit - Private,32.8146294,-79.9515371
3513,UNION HOSPITAL,659 BOULEVARD,DOVER,OH,Voluntary non-profit - Other,40.515302,-81.45570699999999
3527,WOOSTER COMMUNITY HOSPITAL,1761 BEALL AVENUE,WOOSTER,OH,Government - Local,40.820911,-81.93140129999999
3532,WAYNE HOSPITAL,835 SWEITZER STREET,GREENVILLE,OH,Voluntary non-profit - Private,40.0892163,-84.63434149999999
3539,MERCER COUNTY JOINT TOWNSHIP COMMUNITY HOSPITAL,800 WEST MAIN STREET,COLDWATER,OH,Government - Hospital District or Authority,41.7696865,-81.06561219999999
3544,TOLEDO HOSPITAL THE,2142 NORTH COVE BOULEVARD,TOLEDO,OH,Voluntary non-profit - Private,41.6730403,-83.5949906
3551,FAIRVIEW HOSPITAL,18101 LORAIN AVENUE,CLEVELAND,OH,Voluntary non-profit - Private,41.4501194,-81.8238665
3560,LUTHERAN HOSPITAL,1730 WEST 25TH STREET,CLEVELAND,OH,Voluntary non-profit - Private,41.4873144,-81.70753599999999
3577,GRANDVIEW HOSPITAL & MEDICAL CENTER,405 GRAND AVENUE,DAYTON,OH,Voluntary non-profit - Other,43.0384866,-76.1791571
3582,UNIVERSITY HOSPITALS - ELYRIA MEDICAL CENTER,630 EAST RIVER STREET,ELYRIA,OH,Voluntary non-profit - Private,41.3662037,-82.0977321
3584,POMERENE HOSPITAL,981 WOOSTER ROAD,MILLERSBURG,OH,Government - Local,40.5651437,-81.91997479999999
3587,SOUTHWEST GENERAL HEALTH CENTER,18697 BAGLEY ROAD,MIDDLEBURG HEIGHTS,OH,Voluntary non-profit - Private,41.3688774,-81.8309271
3591,CHRIST HOSPITAL,2139 AUBURN AVENUE,CINCINNATI,OH,Voluntary non-profit - Private,39.1208511,-84.50856069999999
3597,CLEVELAND CLINIC,9500 EUCLID AVENUE,CLEVELAND,OH,Voluntary non-profit - Private,41.502823,-81.62172199999999
3606,HILLCREST HOSPITAL,6780 MAYFIELD ROAD,MAYFIELD HEIGHTS,OH,Voluntary non-profit - Private,41.51904620000001,-81.43560169999999
3609,SYCAMORE MEDICAL CENTER,4000 MIAMISBURG-CENTERVILLE ROAD,MIAMISBURG,OH,Voluntary non-profit - Church,39.6375421,-84.248541
3614,MERCY ST ANNE HOSPITAL,3404 SYLVANIA AVENUE,TOLEDO,OH,Voluntary non-profit - Church,41.6935557,-83.6257808
3619,DUBLIN METHODIST HOSPITAL,7500 HOSPITAL AVENUE,DUBLIN,OH,Voluntary non-profit - Private,41.7537129,-87.58649679999999
3621,SURGICAL HOSPITAL AT SOUTHWOODS,7630 SOUTHERN BLVD,YOUNGSTOWN,OH,Proprietary,41.01547,-80.6558321
3625,UNIVERSITY HOSPITALS AHUJA MEDICAL CENTER,3999 RICHMOND ROAD,BEACHWOOD,OH,Voluntary non-profit - Private,41.45258460000001,-81.4951842
3637,UHHS MEMORIAL HOSPITAL OF GENEVA,870 WEST MAIN STREET,GENEVA,OH,Voluntary non-profit - Private,41.7996624,-80.96184010000002
3638,UNIVERSITY HOSPITALS CONNEAUT MEDICAL CENTER,158 WEST MAIN ROAD,CONNEAUT,OH,Voluntary non-profit - Other,41.9376726,-80.5868053
3644,MAGRUDER HOSPITAL,615 FULTON ST,PORT CLINTON,OH,Voluntary non-profit - Private,41.8846275,-88.3134905
3648,SELBY GENERAL HOSPITAL,1106 COLEGATE DRIVE,MARIETTA,OH,Voluntary non-profit - Private,39.440349,-81.4440357
3750,MEMORIAL HOSPITAL,1401 WEST LOCUST,STILWELL,OK,Voluntary non-profit - Private,35.8093848,-94.6430681
3753,"SOUTHWESTERN REGIONAL MEDICAL CENTER, INC",10109 EAST 79TH STREET,TULSA,OK,Proprietary,36.0515576,-95.8633298
3758,"COMMUNITY HOSPITAL, LLC",3100 SOUTHWEST 89TH STREET,OKLAHOMA CITY,OK,Physician,35.3755799,-97.57052949999999
3760,"OKLAHOMA SURGICAL HOSPITAL, LLC","2408 EAST 81ST STREET, SUITE 300",TULSA,OK,Physician,36.043221,-95.95361559999999
3764,"OKLAHOMA HEART HOSPITAL, LLC",4050 WEST MEMORIAL ROAD,OKLAHOMA CITY,OK,Physician,35.60804150000001,-97.59719
3768,MCBRIDE ORTHOPEDIC HOSPITAL,9600 NORTH BROADWAY EXTENSION,OKLAHOMA CITY,OK,Physician,35.5684621,-97.5114426
3770,ST JOHN OWASSO,12451 EAST 100TH STREET NORTH,OWASSO,OK,Voluntary non-profit - Private,36.2992381,-95.8350858
3773,"OKLAHOMA HEART HOSPITAL SOUTH, LLC",5200 EAST I-240 SERVICE ROAD,OKLAHOMA CITY,OK,Physician,35.3894956,-97.4260458
3774,"ST JOHN BROKEN ARROW, INC",1000 WEST BOISE CIRCLE,BROKEN ARROW,OK,Voluntary non-profit - Private,36.07802290000001,-95.8007014
3831,ASANTE THREE RIVERS MEDICAL CENTER,500 SW RAMSEY AVENUE,GRANTS PASS,OR,Voluntary non-profit - Other,42.4211806,-123.3426466
3832,PROVIDENCE ST VINCENT MEDICAL CENTER,9205 SW BARNES ROAD,PORTLAND,OR,Voluntary non-profit - Private,45.5104377,-122.7716281
3833,ASANTE ASHLAND COMMUNITY HOSPITAL,280 MAPLE STREET,ASHLAND,OR,Government - Local,35.5030533,-119.2613378
3835,OHSU HOSPITAL AND CLINICS,3181 SW SAM JACKSON PARK ROAD,PORTLAND,OR,Voluntary non-profit - Other,45.4992017,-122.6867232
3838,ASANTE ROGUE REGIONAL MEDICAL CENTER,2825 E BARNETT ROAD,MEDFORD,OR,Voluntary non-profit - Private,42.3174845,-122.8311596
3841,SAMARITAN ALBANY GENERAL HOSPITAL,1046 6TH AVENUE SW,ALBANY,OR,Voluntary non-profit - Church,44.6316664,-123.1164391
3852,"SAINT ALPHONSUS MEDICAL CENTER - ONTARIO, INC",351 SW 9TH STREET,ONTARIO,OR,Voluntary non-profit - Church,44.0250261,-116.9767263
3855,PROVIDENCE PORTLAND MEDICAL CENTER,4805 NE GLISAN STREET,PORTLAND,OR,Voluntary non-profit - Private,45.526986,-122.6138954
3863,KAISER FOUNDATION HOSPITAL - WESTSIDE,2875 NW STUCKI AVE,HILLSBORO,OR,Voluntary non-profit - Private,45.5394714,-122.8767439
3869,WALLOWA MEMORIAL HOSPITAL,601 MEDICAL PARKWAY,ENTERPRISE,OR,Government - Hospital District or Authority,30.1462781,-96.3978786
3909,ST LUKE'S QUAKERTOWN HOSPITAL,1021 PARK AVENUE,QUAKERTOWN,PA,Voluntary non-profit - Private,40.7794718,-73.9572669
3915,READING HOSPITAL,420 S 5TH AVENUE,WEST READING,PA,Voluntary non-profit - Other,40.3298163,-75.9493335
3916,WILLIAMSPORT REGIONAL MEDICAL CENTER,700 HIGH STREET,WILLIAMSPORT,PA,Voluntary non-profit - Other,41.3975943,-81.523363
3919,ST LUKE'S HOSPITAL BETHLEHEM,801 OSTRUM STREET,BETHLEHEM,PA,Voluntary non-profit - Private,40.6089201,-75.39370079999999
3946,LANCASTER GENERAL HOSPITAL,555 NORTH DUKE STREET,LANCASTER,PA,Voluntary non-profit - Other,40.047027,-76.3040232
3950,UPMC PASSAVANT,9100 BABCOCK BOULEVARD,PITTSBURGH,PA,Voluntary non-profit - Private,40.57284629999999,-80.01398879999999
3966,WAYNESBORO HOSPITAL,501 EAST MAIN ST,WAYNESBORO,PA,Voluntary non-profit - Private,34.1511187,-85.67426809999999
3973,CHAMBERSBURG HOSPITAL,112 NORTH SEVENTH STREET,CHAMBERSBURG,PA,Voluntary non-profit - Private,39.9344065,-77.6460563
3974,PAOLI HOSPITAL,255 WEST LANCASTER AVENUE,PAOLI,PA,Voluntary non-profit - Private,40.0444805,-75.50224349999999
3984,UPMC HORIZON,110 NORTH MAIN STREET,GREENVILLE,PA,Voluntary non-profit - Private,39.7614368,-84.191396
3985,CHESTER COUNTY HOSPITAL,701 EAST MARSHALL STREET,WEST CHESTER,PA,Voluntary non-profit - Private,39.9716591,-75.6019109
3990,TYLER MEMORIAL HOSPITAL,5950 STATE ROUTE 6 WEST,TUNKHANNOCK,PA,Proprietary,41.5775199,-75.9692744
4017,MOUNT NITTANY MEDICAL CENTER,1800 EAST PARK AVE,STATE COLLEGE,PA,Voluntary non-profit - Private,40.8190073,-77.8434482
4033,ST LUKE'S HOSPITAL - ANDERSON CAMPUS,1872 ST LUKE'S BLVD,EASTON,PA,Voluntary non-profit - Private,40.6491651,-75.2884632
4141,NEWPORT HOSPITAL,11 FRIENDSHIP STREET,NEWPORT,RI,Voluntary non-profit - Private,41.497352,-71.306187
4143,SOUTH COUNTY HOSPITAL INC,100 KENYON AVE,WAKEFIELD,RI,Voluntary non-profit - Private,41.4310715,-71.4971387
4162,ST FRANCIS-DOWNTOWN,ONE ST FRANCIS DR,GREENVILLE,SC,Voluntary non-profit - Private,34.8407268,-82.4218645
4166,PRISMA HEALTH GREER MEMORIAL HOSPITAL,830 SOUTH BUNCOMBE ROAD,GREER,SC,Voluntary non-profit - Private,34.9202093,-82.2437522
4191,ROPER HOSPITAL,316 CALHOUN ST,CHARLESTON,SC,Voluntary non-profit - Private,32.782676,-79.9498403
4197,PRISMA HEALTH  PATEWOOD HOSPITAL,175 PATEWOOD DRIVE,GREENVILLE,SC,Voluntary non-profit - Private,34.8517499,-82.3271305
4199,MOUNT PLEASANT HOSPITAL,3510 HIGHWAY 17 NORTH SUITE 140,MOUNT PLEASANT,SC,Voluntary non-profit - Private,32.8781097,-79.7681281
4200,MCLEOD LORIS  HOSPITAL,3655 MITCHELL STREET,LORIS,SC,Voluntary non-profit - Private,34.0574304,-78.89858799999999
4201,PRISMA HEALTH BAPTIST PARKRIDGE,400 PALMETTO HEALTH PARKWAY,COLUMBIA,SC,Voluntary non-profit - Private,34.0872139,-81.1596497
4220,AVERA SACRED HEART HOSPITAL,501 SUMMIT ST,YANKTON,SD,Voluntary non-profit - Private,41.6752326,-71.1849313
4221,AVERA QUEEN OF PEACE,525 N FOSTER,MITCHELL,SD,Voluntary non-profit - Private,43.7147091,-98.0080006
4222,AVERA ST LUKES,305 S STATE ST  POST OFFICE BOX 4450,ABERDEEN,SD,Voluntary non-profit - Church,41.8544254,-87.62690909999999
4223,AVERA ST MARY'S HOSPITAL,801 E SIOUX,PIERRE,SD,Voluntary non-profit - Private,26.2179106,-98.1708986
4234,AVERA HEART HOSPITAL OF SOUTH DAKOTA,4500 W 69TH ST,SIOUX FALLS,SD,Proprietary,43.49098009999999,-96.7810825
4334,SAINT THOMAS DEKALB HOSPITAL,520 W MAIN ST,SMITHVILLE,TN,Voluntary non-profit - Church,39.865655,-86.4731357
4412,UT SOUTHWESTERN UNIVERSITY HOSPITAL,6201 HARRY HINES BLVD,DALLAS,TX,Government - State,32.8193657,-96.8488409
4432,PAMPA REGIONAL MEDICAL CENTER,1 MEDICAL PLAZA,PAMPA,TX,Voluntary non-profit - Private,33.6468827,-117.8510912
4434,CHRISTUS MOTHER FRANCES HOSPITAL,800 EAST DAWSON,TYLER,TX,Voluntary non-profit - Private,32.3429531,-95.2908131
4448,DETAR HEALTHCARE SYSTEM,506 E SAN ANTONIO ST,VICTORIA,TX,Proprietary,28.8081385,-96.9986111
4455,METHODIST HOSPITAL SOUTH,1905 HWY 97 EAST,JOURDANTON,TX,Proprietary,28.9331124,-98.5260352
4471,HENDRICK MEDICAL CENTER,1900 PINE,ABILENE,TX,Voluntary non-profit - Private,38.6308084,-90.20774019999999
4492,HOUSTON METHODIST HOSPITAL,6565 FANNIN,HOUSTON,TX,Voluntary non-profit - Private,29.7099079,-95.3997225
4495,BAYLOR SCOTT & WHITE MEDICAL CENTER- WAXAHACHIE,2400 N INTERSTATE HIGHWAY 35E,WAXAHACHIE,TX,Voluntary non-profit - Private,32.4274679,-96.8579635
4507,ST DAVID'S MEDICAL CENTER,919 E 32ND ST,AUSTIN,TX,Proprietary,30.2903708,-97.72647909999999
4511,TEXAS HEALTH PRESBYTERIAN HOSPITAL  DALLAS,8200 WALNUT HILL LANE,DALLAS,TX,Voluntary non-profit - Private,32.8794383,-96.76320079999999
4521,COVENANT HOSPITAL PLAINVIEW,2601 DIMMITT RD,PLAINVIEW,TX,Voluntary non-profit - Private,34.2065762,-101.7326554
4523,BAYLOR SCOTT & WHITE MEDICAL CENTER  GRAPEVINE,1650 W COLLEGE ST,GRAPEVINE,TX,Voluntary non-profit - Private,32.93355,-97.0937122
4525,SHANNON MEDICAL CENTER,120 EAST HARRIS AVENUE,SAN ANGELO,TX,Voluntary non-profit - Private,31.4652085,-100.4343879
4533,HILL COUNTRY MEMORIAL HOSPITAL INC,1020 SOUTH STATE HIGHWAY 16,FREDERICKSBURG,TX,Voluntary non-profit - Private,30.2630287,-98.8808225
4543,MEDICAL CITY DALLAS,7777 FOREST LANE,DALLAS,TX,Proprietary,32.9113881,-96.77344629999999
4549,PARK PLAZA HOSPITAL,1313 HERMANN DR,HOUSTON,TX,Proprietary,29.72272,-95.3875429
4586,TEXAS HEALTH HARRIS METHODIST HOSPITAL SOUTHWEST F,6100 HARRIS PKWY,FORT WORTH,TX,Voluntary non-profit - Private,32.6579704,-97.4209578
4593,NORTH AUSTIN MEDICAL CENTER,12221 MOPAC EXPRESSWAY NORTH,AUSTIN,TX,Proprietary,30.4114435,-97.70628219999999
4594,HOUSTON METHODIST SUGARLAND HOSPITAL,16655 SOUTHWEST FREEWAY,SUGAR LAND,TX,Voluntary non-profit - Private,29.5890748,-95.63112149999999
4597,KELL WEST REGIONAL HOSPITAL,5402 KELL WEST BOULEVARD,WICHITA FALLS,TX,Proprietary,33.8729944,-98.5790546
4606,BAYLOR SCOTT AND WHITE HEART AND VASCULAR HOSPITAL,621 NORTH HALL STREET,DALLAS,TX,Proprietary,32.7881677,-96.7809587
4608,HARLINGEN MEDICAL CENTER,5501 SOUTH EXPRESSWAY 77,HARLINGEN,TX,Proprietary,26.1574283,-97.67541759999999
4612,BAYLOR SCOTT & WHITE TEXAS SPINE & JOINT HOSPITAL,1814 ROSELAND BOULEVARD,TYLER,TX,Physician,32.3295556,-95.2986526
4621,FOUNDATION SURGICAL HOSPITAL OF EL PASO,1416 GEORGE DIETER,EL PASO,TX,Proprietary,31.73498319999999,-106.3004867
4627,BAYLOR REGIONAL MEDICAL CENTER AT PLANO,4700 ALLIANCE BOULEVARD,PLANO,TX,Voluntary non-profit - Other,33.0133231,-96.790729
4629,THE HEART HOSPITAL BAYLOR DENTON,2801 SOUTH MAYHILL ROAD,DENTON,TX,Physician,33.1767031,-97.087234
4702,LAVACA MEDICAL CENTER,1400 NORTH TEXANA STREET,HALLETTSVILLE,TX,Government - Hospital District or Authority,29.4609714,-96.93957429999999
4706,UT HEALTH EAST TEXAS QUITMAN HOSPITAL,117 WINNSBORO STREET,QUITMAN,TX,Voluntary non-profit - Private,32.7959827,-95.4454786
4788,UTAH VALLEY HOSPITAL,1034 NORTH 500 WEST,PROVO,UT,Voluntary non-profit - Private,40.24795719999999,-111.6657705
4792,LDS HOSPITAL,8TH AVENUE AND C STREET,SALT LAKE CITY,UT,Voluntary non-profit - Private,40.778486,-111.8745366
4793,CEDAR CITY HOSPITAL,1303 NORTH MAIN STREET,CEDAR CITY,UT,Voluntary non-profit - Private,41.85607539999999,-71.3992998
4795,INTERMOUNTAIN MEDICAL CENTER,5121 SOUTH COTTONWOOD STREET,MURRAY,UT,Voluntary non-profit - Private,40.6590658,-111.891794
4799,LOGAN REGIONAL HOSPITAL,500 EAST 1400 NORTH,LOGAN,UT,Voluntary non-profit - Private,41.7557628,-111.8214696
4802,DIXIE REGIONAL MEDICAL CENTER,1380 EAST MEDICAL CENTER DRIVE,ST GEORGE,UT,Voluntary non-profit - Private,37.098018,-113.5540634
4803,AMERICAN FORK HOSPITAL,170 NORTH 1100 EAST,AMERICAN FORK,UT,Voluntary non-profit - Private,40.3804239,-111.7671837
4804,SEVIER VALLEY HOSPITAL,1000 NORTH MAIN STREET,RICHFIELD,UT,Voluntary non-profit - Private,41.0537667,-83.6534018
4810,ALTA VIEW HOSPITAL,9660 SOUTH 1300 EAST,SANDY,UT,Voluntary non-profit - Private,40.5759389,-111.8539588
4840,CENTRAL VERMONT MEDICAL CENTER,BOX 547,BARRE,VT,Voluntary non-profit - Private,NaN,NaN
4858,NORTON COMMUNITY HOSPITAL,100  15TH NW STREET,NORTON,VA,Voluntary non-profit - Private,36.931716,-82.64336449999999
4879,INOVA ALEXANDRIA HOSPITAL,4320 SEMINARY RD,ALEXANDRIA,VA,Voluntary non-profit - Private,38.82245,-77.1049983
4882,INOVA LOUDOUN HOSPITAL,44045 RIVERSIDE PARKWAY,LEESBURG,VA,Voluntary non-profit - Private,39.07404500000001,-77.477535
4887,VIRGINIA HOSPITAL CENTER,1701 NORTH GEORGE MASON DRIVE,ARLINGTON,VA,Voluntary non-profit - Private,38.8890755,-77.1274832
4894,INOVA FAIRFAX HOSPITAL,3300 GALLOWS ROAD,FALLS CHURCH,VA,Voluntary non-profit - Private,38.8572,-77.2278068
4895,SENTARA WILLIAMSBURG REGIONAL MEDICAL CENTER,100 SENTARA CIRCLE,WILLIAMSBURG,VA,Voluntary non-profit - Private,37.3366689,-76.7410608
4899,MARTHA JEFFERSON HOSPITAL,500 MARTHA JEFFERSON DRIVE,CHARLOTTESVILLE,VA,Voluntary non-profit - Private,38.0225459,-78.44342739999999
4910,INOVA FAIR OAKS HOSPITAL,3600 JOSEPH SIEWICK DRIVE,FAIRFAX,VA,Voluntary non-profit - Other,38.8841221,-77.3800608
4922,SENTARA PRINCESS ANNE HOSPITAL,2025 GLENN MITCHELL DRIVE,VIRGINIA BEACH,VA,Voluntary non-profit - Other,36.7753343,-76.0978916
4924,INOVA MOUNT VERNON HOSPITAL,2501 PARKERS LANE,ALEXANDRIA,VA,Voluntary non-profit - Private,38.7397196,-77.0771323
4940,"PAGE MEMORIAL HOSPITAL, INC",200 MEMORIAL DRIVE,LURAY,VA,Voluntary non-profit - Private,40.9168779,-74.168584
4954,PROVIDENCE ST MARY MEDICAL CENTER,401 W POPLAR ST,WALLA WALLA,WA,Voluntary non-profit - Private,46.0619847,-118.3432076
4956,VIRGINIA MASON MEDICAL CENTER,925 SENECA ST,SEATTLE,WA,Voluntary non-profit - Private,47.6100079,-122.327633
4967,SWEDISH MEDICAL CENTER / CHERRY HILL,500 17TH AVENUE,SEATTLE,WA,Voluntary non-profit - Church,47.6073043,-122.3102868
4969,SWEDISH MEDICAL CENTER,747 BROADWAY,SEATTLE,WA,Voluntary non-profit - Private,47.6084642,-122.3214803
4983,KADLEC REGIONAL MEDICAL CENTER,888 SWIFT BLVD,RICHLAND,WA,Voluntary non-profit - Private,46.2813864,-119.2822234
4988,OLYMPIC MEDICAL CENTER,939 CAROLINE ST,PORT ANGELES,WA,Government - Local,48.1154826,-123.4144823
4992,VALLEY MEDICAL CENTER,400 S 43RD ST,RENTON,WA,Government - Hospital District or Authority,47.4423897,-122.2141759
4995,EVERGREENHEALTH MEDICAL CENTER,12040 NE 128TH STREET,KIRKLAND,WA,Government - Hospital District or Authority,47.71561,-122.1785465
5001,LEGACY SALMON CREEK MEDICAL CENTER,2211 NE 139TH STREET,VANCOUVER,WA,Voluntary non-profit - Private,45.7207142,-122.6479792
5002,ST ANTHONY HOSPITAL,11567 CANTERWOOD BOULEVARD NW,GIG HARBOR,WA,Voluntary non-profit - Church,47.3644245,-122.6134684
5003,SWEDISH ISSAQUAH,751 NE BLAKELY DR,ISSAQUAH,WA,Voluntary non-profit - Private,47.536237,-122.0220539
5009,LINCOLN HOSPITAL,10 NICHOLS STREET,DAVENPORT,WA,Government - Hospital District or Authority,42.3774144,-71.84559
5026,JEFFERSON HEALTHCARE,834 SHERIDAN STREET,PORT TOWNSEND,WA,Government - Hospital District or Authority,48.106065,-122.7891109
5030,WHITMAN HOSPITAL AND MEDICAL CENTER,1200 WEST FAIRVIEW,COLFAX,WA,Government - Hospital District or Authority,46.8694908,-117.3760085
5089,WAR MEMORIAL HOSPITAL INC,1 HEALTHY WAY,BERKELEY SPRINGS,WV,Voluntary non-profit - Private,40.6528352,-73.63057049999999
5092,PRESTON MEMORIAL HOSPITAL,150 MEMORIAL DRIVE,KINGWOOD,WV,Voluntary non-profit - Private,41.8671649,-71.36669750000001
5095,POTOMAC VALLEY HOSPITAL,100 PIN OAK LANE,KEYSER,WV,Voluntary non-profit - Private,30.0428427,-96.0813446
5107,ASCENSION ST MICHAELS HOSPITAL,900 ILLINOIS AVE,STEVENS POINT,WI,Voluntary non-profit - Church,44.5268222,-89.5665679
5108,MAYO CLINIC HLTH SYSTEM FRANCISCAN MED CTR,700 WEST AVENUE SOUTH,LA CROSSE,WI,Voluntary non-profit - Private,43.8043634,-91.2427084
5109,WAUKESHA MEMORIAL HOSPITAL,725 AMERICAN AVE,WAUKESHA,WI,Voluntary non-profit - Private,43.0114734,-88.2429094
5117,THE MONROE CLINIC,2005 5TH STREET,MONROE,WI,Voluntary non-profit - Private,30.0859431,-96.0734784
5121,AURORA SHEBOYGAN MEMORIAL MEDICAL CTR,2629 N 7TH ST,SHEBOYGAN,WI,Voluntary non-profit - Private,43.7732104,-87.7100262
5123,AURORA MEDICAL CTR WASHINGTON COUNTY,1032 E SUMNER ST,HARTFORD,WI,Voluntary non-profit - Private,43.318278,-88.36232269999999
5127,BELLIN MEMORIAL HOSPITAL,744 S WEBSTER AVE,GREEN BAY,WI,Voluntary non-profit - Private,44.5021822,-88.0116943
5134,MAYO CLINIC HEALTH SYSTEM IN EAU CLAIRE,1221 WHIPPLE ST,EAU CLAIRE,WI,Voluntary non-profit - Private,44.8121863,-91.5129352
5135,FORT MEMORIAL HOSPITAL,611 SHERMAN AVE E,FORT ATKINSON,WI,Voluntary non-profit - Private,42.9313095,-88.8279512
5139,SSM HEALTH ST MARY'S HOSPITAL - MADISON,700 SOUTH PARK ST,MADISON,WI,Voluntary non-profit - Private,43.059354,-89.400976
5142,UNITYPOINT HEALTH - MERITER,202 S PARK ST,MADISON,WI,Voluntary non-profit - Private,43.0660369,-89.40193149999999
5144,SAUK PRAIRIE HOSPITAL,260 26TH STREET,PRAIRIE DU SAC,WI,Voluntary non-profit - Private,40.7468602,-73.99670739999999
5149,AURORA LAKELAND MEDICAL CENTER,W3985 COUNTY ROAD NN,ELKHORN,WI,Voluntary non-profit - Private,42.6612269,-88.49610799999999
5150,COMMUNITY MEMORIAL HOSPITAL,W180 N8085 TOWN HALL RD,MENOMONEE FALLS,WI,Voluntary non-profit - Private,43.16401279999999,-88.1384415
5153,AURORA MEDICAL CENTER BAY AREA,3003 UNIVERSITY DR,MARINETTE,WI,Voluntary non-profit - Private,35.968751,-78.936296
5160,AURORA MEDICAL CTR KENOSHA,10400 75TH ST,KENOSHA,WI,Voluntary non-profit - Private,42.5699478,-87.9354718
5168,AURORA MEDICAL CENTER,975 PORT WASHINGTON ROAD,GRAFTON,WI,Voluntary non-profit - Private,43.3236103,-87.9283538
5169,SSM HEALTH ST MARY'S HOSPITAL - JANESVILLE,3400 EAST RACINE STREET,JANESVILLE,WI,Voluntary non-profit - Other,42.66899069999999,-88.97739
5171,ASCENSION EAGLE RIVER HOSPITAL,201 HOSPITAL ROAD,EAGLE RIVER,WI,Voluntary non-profit - Private,34.2454961,-84.49026119999999
5204,HUDSON HOSPITAL & CLINIC,405 STAGELINE ROAD,HUDSON,WI,Voluntary non-profit - Private,44.96079719999999,-92.7175678
5209,MAYO CLINIC HEALTH SYSTEM-RED CEDAR,2321 STOUT RD,MENOMONIE,WI,Voluntary non-profit - Private,44.8831315,-91.90152859999999
5212,STOUGHTON HOSPITAL,900 RIDGE ST,STOUGHTON,WI,Voluntary non-profit - Private,42.920316,-89.2113541
5214,WESTFIELDS HOSPITAL AND CLINIC,535 HOSPITAL RD,NEW RICHMOND,WI,Voluntary non-profit - Private,45.1176605,-92.5551796
5216,WESTERN WISCONSIN HEALTH,1100 BERGSLIEN ST,BALDWIN,WI,Voluntary non-profit - Private,44.9413403,-92.37873959999999
5221,UPLAND HILLS HEALTH,800 COMPASSION WAY,DODGEVILLE,WI,Voluntary non-profit - Private,42.95173440000001,-90.12952729999999
5223,SOUTHWEST HEALTH CENTER,1400 EAST SIDE RD,PLATTEVILLE,WI,Voluntary non-profit - Private,42.725742,-90.455845
5227,DOOR COUNTY MEDICAL CENTER,323 SOUTH 18TH AVENUE,STURGEON BAY,WI,Voluntary non-profit - Church,44.8326774,-87.35285929999999
5248,CHEYENNE REGIONAL MEDICAL CENTER,214 EAST 23RD STREET,CHEYENNE,WY,Voluntary non-profit - Other,41.140603,-104.8165116
5281,METHODIST MANSFIELD MEDICAL CENTER,2700 E BROAD STREET,MANSFIELD,TX,Voluntary non-profit - Private,37.530586,-77.416705
5282,THE HEART HOSPITAL BAYLOR PLANO,1100 ALLIED DRIVE,PLANO,TX,Proprietary,33.0147787,-96.7897247
5283,ST LUKE'S PATIENTS MEDICAL CENTER,4600 EAST SAM HOUSTON PARKWAY SOUTH,PASADENA,TX,Physician,29.6411341,-95.16226809999999
5284,SCOTT & WHITE HOSPITAL-ROUND ROCK,300 UNIVERSITY BLVD,ROUND ROCK,TX,Voluntary non-profit - Private,30.5634437,-97.6846195
5287,TEXAS HEALTH PRESBYTERIAN HOSPITAL ROCKWALL,3150 HORIZON ROAD,ROCKWALL,TX,Proprietary,32.88435620000001,-96.46616209999999
5297,SOUTH TEXAS SURGICAL HOSPITAL,6130 PARKWAY DRIVE,CORPUS CHRISTI,TX,Proprietary,27.6863586,-97.3753236
5302,TEXAS HEALTH HEART & VASCULAR HOSPITAL ARLINGTON,811 WRIGHT STREET,ARLINGTON,TX,Proprietary,32.7477094,-97.1170439
5307,BAPTIST EMERGENCY HOSPITAL,16088 SAN PEDRO,SAN ANTONIO,TX,Proprietary,29.5878278,-98.4734862
5322,BAYLOR SCOTT & WHITE MEDICAL CENTER - MARBLE FALLS,810 W HIGHWAY 71,MARBLE FALLS,TX,Voluntary non-profit - Private,30.5129753,-98.3044814
